QIANFAN-1               
1 60379U 24140A   25267.29549377  .00000113  00000+0  15638-3 0  9994
2 60379  88.9774 307.5167 0019673  86.0787 274.2613 13.50973667 56622
QIANFAN-2               
1 60380U 24140B   25267.25009530  .00000113  00000+0  15554-3 0  9991
2 60380  88.9760 307.3716 0014539  62.7323 297.5308 13.50965816 56671
QIANFAN-3               
1 60381U 24140C   25267.25838041  .00000109  00000+0  14918-3 0  9997
2 60381  88.9754 307.5093 0015909  73.3842 286.9055 13.50965919 56586
QIANFAN-4               
1 60382U 24140D   25267.23376934  .00000101  00000+0  13754-3 0  9993
2 60382  88.9777 307.3896 0014831  64.9437 295.3252 13.50973045 56706
QIANFAN-5               
1 60383U 24140E   25267.35717755  .00000123  00000+0  17125-3 0  9997
2 60383  88.9752 307.5247 0017317  82.7319 277.5800 13.50968990 56581
QIANFAN-6               
1 60384U 24140F   25267.30372016  .00000096  00000+0  13030-3 0  9990
2 60384  88.9780 307.2553 0015065  69.8780 290.3991 13.50964840 56771
QIANFAN-7               
1 60385U 24140G   25267.25950872  .00000633  00000+0  25145-3 0  9994
2 60385  88.9781 303.0738 0012813 307.5704  52.4326 14.27556504 59050
QIANFAN-8               
1 60386U 24140H   25267.23783708  .00000088  00000+0  11752-3 0  9998
2 60386  88.9782 307.4982 0018547  71.1882 289.1279 13.50968692 56617
